COSMOS 1455             
1 14032U 83037A   17346.29942114  .00000644  00000-0  30480-4 0  9997
2 14032  82.5172 271.3617 0018207  25.9137 334.3004 15.17356173888380
